{
"type": "FeatureCollection",
"name": "ES",
"crs": { "type": "name", "properties": { "name": "urn:ogc:def:crs:OGC:1.3:CRS84" } },
"features": [
{ "type": "Feature", "properties": { "ISO3166-1": "ES", "ISO3166-1:alpha2": "ES", "ISO3166-1:alpha3": "ESP", "ISO3166-1:numeric": "724", "admin_level": "2", "alt_name:eo": "Hispanujo", "alt_name:gl": "Espanha", "boundary": "administrative", "currency": "EUR", "default_language": "es", "driving_side": "right", "flag": "File:Bandera_de_España.svg", "int_name": "Spain", "name": "España", "name:ace": "Seupanyo", "name:af": "Spanje", "name:als": "Spanien", "name:am": "እስፓንያ", "name:an": "Espanya", "name:ang": "Spēonland", "name:ar": "إسبانيا", "name:arc": "ܐܣܦܢܝܐ", "name:arz": "اسبانيا", "name:ast": "España", "name:ay": "Ispaña", "name:az": "İspaniya", "name:ba": "Испания", "name:bar": "Spanien", "name:bat-smg": "Ispanėjė", "name:bcl": "Espanya", "name:be": "Іспанія", "name:be-tarask": "Гішпанія", "name:bg": "Испания", "name:bi": "Spain", "name:bn": "স্পেন", "name:bo": "ཞི་པན་ཡ།", "name:bpy": "স্পেন", "name:br": "Spagn", "name:bs": "Španija", "name:bug": "Spanyol", "name:bxr": "Испани", "name:ca": "Espanya", "name:cbk-zam": "España", "name:cdo": "Să̤-băng-ngà", "name:ce": "Испани", "name:ceb": "Espanya", "name:ch": "España", "name:chr": "ᏍᏆᏂᏱ", "name:chy": "Spain", "name:ckb": "ئیسپانیا", "name:co": "Spagna", "name:crh": "İspaniya", "name:cs": "Španělsko", "name:csb": "Szpańskô", "name:cu": "Їспанїꙗ", "name:cv": "Испани", "name:cy": "Sbaen", "name:da": "Spanien", "name:de": "Spanien", "name:diq": "İspanya", "name:dsb": "Špańska", "name:dv": "އިސްޕެއިން", "name:dz": "སིཔཱེན་", "name:ee": "Spain", "name:el": "Ισπανία", "name:eml": "Spaggna", "name:en": "Spain", "name:eo": "Hispanio", "name:es": "España", "name:et": "Hispaania", "name:eu": "Espainia", "name:ext": "España", "name:fa": "اسپانیا", "name:fi": "Espanja", "name:fo": "Spania", "name:fr": "Espagne", "name:frp": "Èspagne", "name:frr": "Spaanien", "name:fur": "Spagne", "name:fy": "Spanje", "name:ga": "An Spáinn", "name:gaceria": "España", "name:gag": "İspaniya", "name:gan": "西班牙", "name:gd": "An Spàinn", "name:gl": "España", "name:glk": "ائسپانيا", "name:gn": "España", "name:gu": "સ્પેન", "name:gv": "Yn Spaainey", "name:hak": "Sî-pân-ngà", "name:haw": "Sepania", "name:he": "ספרד", "name:hi": "स्पेन", "name:hif": "Spain", "name:hr": "Španjolska", "name:hsb": "Španiska", "name:ht": "Espay", "name:hu": "Spanyolország", "name:hy": "Իսպանիա", "name:ia": "Espania", "name:id": "Spanyol", "name:ie": "Hispania", "name:ig": "Spain", "name:ik": "Spaña", "name:ilo": "España", "name:io": "Hispania", "name:is": "Spánn", "name:it": "Spagna", "name:iu": "ᓯᐸᐃᓐ", "name:ja": "スペイン", "name:jbo": "sangu'e", "name:jv": "Spanyol", "name:ka": "ესპანეთი", "name:kaa": "İspaniya", "name:kab": "Spenyul", "name:kbd": "Эспаниэ", "name:kg": "Espania", "name:kk": "Испания", "name:kl": "Spania", "name:km": "អេស្ប៉ាញ", "name:kn": "ಸ್ಪೇನ್", "name:ko": "스페인", "name:koi": "Эспання", "name:krc": "Испания", "name:ku": "Spanya", "name:kv": "Испания", "name:kw": "Spayn", "name:ky": "Испания", "name:la": "Hispania", "name:lad": "Espanya", "name:lb": "Spuenien", "name:lez": "Испания", "name:li": "Spanje", "name:lij": "Spagna", "name:lmo": "Spagna", "name:ln": "Espania", "name:lt": "Ispanija", "name:ltg": "Spaneja", "name:lv": "Spānija", "name:lzh": "西班牙", "name:mdf": "Испания", "name:mg": "Espaina", "name:mhr": "Испаний", "name:mi": "Peina", "name:min": "Spanyol", "name:mk": "Шпанија", "name:ml": "സ്പെയിൻ", "name:mn": "Испани", "name:mr": "स्पेन", "name:ms": "Sepanyol", "name:mt": "Spanja", "name:mwl": "Spanha", "name:my": "စပိန်နိုင်ငံ", "name:mzn": "ایسپانیا", "name:na": "Pain", "name:nah": "Caxtillān", "name:nan": "Se-pan-gâ", "name:nap": "Spagna", "name:nds": "Spanien", "name:nds-nl": "Spanje", "name:ne": "स्पेन", "name:new": "स्पेन", "name:nl": "Spanje", "name:nn": "Spania", "name:no": "Spania", "name:nov": "Spania", "name:nrm": "Espangne", "name:nv": "Dibé Diníí Bikéyah", "name:oc": "Espanha", "name:or": "ସ୍ପେନ", "name:os": "Испани", "name:pa": "ਸਪੇਨ", "name:pag": "Espanya", "name:pam": "Espanya", "name:pap": "Spaña", "name:pcd": "Espanne", "name:pdc": "Schpaani", "name:pih": "Spain", "name:pl": "Hiszpania", "name:pms": "Spagna", "name:pnb": "سپین", "name:pnt": "Ισπανία", "name:ps": "اسپانیا", "name:pt": "Espanha", "name:qu": "Ispaña", "name:rm": "Spagna", "name:rmy": "Spaniya", "name:rn": "Esipanye", "name:ro": "Spania", "name:roa-tara": "Spagne", "name:ru": "Испания", "name:rue": "Іспанія", "name:rw": "Esipanye", "name:sa": "स्पेन्", "name:sah": "Испания", "name:sc": "Ispagna", "name:scn": "Spagna", "name:sco": "Spain", "name:se": "Espánnja", "name:sh": "Španija", "name:sk": "Španielsko", "name:sl": "Španija", "name:sm": "Spania", "name:smn": "Espanja", "name:sms": "Espanja", "name:so": "Isbania", "name:sq": "Spanja", "name:sr": "Шпанија", "name:srn": "Spanyorokondre", "name:ss": "Sipeyini", "name:st": "Spain", "name:stq": "Spanien", "name:su": "Spanyol", "name:sv": "Spanien", "name:sw": "Hispania", "name:szl": "Szpanijŏ", "name:ta": "எசுப்பானியா", "name:te": "స్పెయిన్", "name:tet": "España", "name:tg": "Испониё", "name:th": "ประเทศสเปน", "name:tk": "Ispaniýa", "name:tl": "Espanya", "name:to": "Sepeni", "name:tok": "ma Epanja", "name:tpi": "Spen", "name:tr": "İspanya", "name:ts": "Spaniya", "name:tt": "Испания", "name:ty": "Paniora", "name:tzl": "Espain", "name:udm": "Испания", "name:ug": "ئىسپانىيە", "name:uk": "Іспанія", "name:ur": "ہسپانیہ", "name:uz": "Ispaniya", "name:vec": "Spagna", "name:vep": "Ispanii", "name:vi": "Tây Ban Nha", "name:vls": "Spanje", "name:vo": "Spanyän", "name:vro": "Hispaania", "name:wa": "Espagne", "name:war": "Espanya", "name:wo": "Ispaañ", "name:wuu": "西班牙", "name:xal": "Эспанмудин Нутг", "name:xmf": "ესპანეთი", "name:yi": "שפאניע", "name:yo": "Spéìn", "name:yue": "西班牙", "name:za": "Sihbanhyaz", "name:zea": "Spanje", "name:zh": "西班牙", "name:zh-Hans": "西班牙", "name:zh-Hant": "西班牙", "name:zu": "ISpeyini", "official_name": "Reino de España", "official_name:ar": "مملكة إسبانيا", "official_name:be": "Каралеўства Іспанія", "official_name:ca": "Regne d’Espanya", "official_name:cs": "Španělské království", "official_name:el": "Βασίλειο της Ισπανίας", "official_name:eo": "Reĝlando Hispanio", "official_name:fa": "پادشاهی اسپانیا", "official_name:gaceria": "Engrullada de España", "official_name:gl": "Reino de España", "official_name:pt": "Reino de Espanha", "official_name:ur": "مملکت ہسپانیہ", "official_name:zh": "西班牙王国", "official_name:zh-Hans": "西班牙王国", "official_name:zh-Hant": "西班牙王國", "source:name:oc": "ieo-bdtopoc", "type": "boundary", "wikidata": "Q29", "wikipedia": "es:España" }, "geometry": { "type": "MultiPolygon", "coordinates": [ [ [ [ -2.6051404, 35.4402296 ], [ -2.7073107, 35.5018831 ], [ -2.9600484, 35.3159326 ], [ -2.966687251271913, 35.303991688805667 ], [ -2.970235988902298, 35.289761697341106 ], [ -2.962829927760624, 35.277544576369941 ], [ -2.9505435, 35.2656282 ], [ -2.93922310787154, 35.267719162684422 ], [ -2.927188258516321, 35.273135884301546 ], [ -2.919936490315099, 35.286361240562471 ], [ -2.6051404, 35.4402296 ] ] ], [ [ [ -3.1066602, 36.132521 ], [ -2.8805084, 36.1008801 ], [ -2.7845708, 35.9528768 ], [ -2.8110467, 35.8511669 ], [ -2.9475063, 35.7502997 ], [ -3.111092, 35.7469571 ], [ -3.2117765, 35.7974236 ], [ -3.2781443, 35.8974115 ], [ -3.2346169, 36.0593255 ], [ -3.1066602, 36.132521 ] ] ], [ [ [ 0.9343357, 39.8147824 ], [ 0.8431512, 39.6954295 ], [ 0.6129249, 39.6558965 ], [ 0.4874549, 39.7103324 ], [ 0.4224913, 39.7944715 ], [ 0.4200805, 39.9542282 ], [ 0.4696022, 40.0224476 ], [ 0.6283202, 40.0957342 ], [ 0.7508251, 40.0947148 ], [ 0.9244595, 39.9835834 ], [ 0.9343357, 39.8147824 ] ] ], [ [ [ -18.3923625, 27.7346856 ], [ -18.3234435, 27.8931466 ], [ -18.0308105, 28.0325176 ], [ -17.8552605, 28.0385866 ], [ -17.7295485, 27.9666456 ], [ -17.6672665, 27.8670406 ], [ -17.6573125, 27.7667866 ], [ -17.7639095, 27.5558266 ], [ -17.8931795, 27.4523406 ], [ -18.0095175, 27.4342946 ], [ -18.3040905, 27.5478406 ], [ -18.3654465, 27.6143506 ], [ -18.3923625, 27.7346856 ] ] ], [ [ [ -18.2358775, 28.7925356 ], [ -18.1259165, 28.9714416 ], [ -17.9338405, 29.0585636 ], [ -17.6656385, 29.0163286 ], [ -17.5908775, 28.9514236 ], [ -17.4918515, 28.7452286 ], [ -17.5472295, 28.4858876 ], [ -17.6365065, 28.3459086 ], [ -17.7443905, 28.2630796 ], [ -17.9066525, 28.2524826 ], [ -18.0620975, 28.3586896 ], [ -18.2199525, 28.6780406 ], [ -18.2358775, 28.7925356 ] ] ], [ [ [ -16.0628735, 27.9361106 ], [ -16.0377315, 28.0827746 ], [ -15.8987085, 28.2766936 ], [ -15.7194405, 28.3694436 ], [ -15.4276395, 28.3821856 ], [ -15.3074695, 28.3571206 ], [ -15.1870295, 28.2449176 ], [ -15.1370315, 28.0263326 ], [ -15.1367825, 27.8720576 ], [ -15.1792225, 27.7613946 ], [ -15.3164765, 27.6251356 ], [ -15.4662935, 27.5544176 ], [ -15.5920705, 27.5290196 ], [ -15.8199805, 27.5853206 ], [ -15.9900455, 27.7357446 ], [ -16.0628735, 27.9361106 ] ] ], [ [ [ 0.9006065, 39.0069996 ], [ 0.9315695, 38.8241006 ], [ 0.9741055, 38.7458396 ], [ 1.1727895, 38.5237046 ], [ 1.2525625, 38.4654866 ], [ 1.3981395, 38.4371136 ], [ 1.6640575, 38.4593506 ], [ 1.7488985, 38.5021846 ], [ 1.8394945, 38.6314896 ], [ 1.9100935, 39.0019106 ], [ 1.8951075, 39.1058336 ], [ 1.7100785, 39.2780736 ], [ 1.5188215, 39.3204586 ], [ 1.2253345, 39.2475236 ], [ 0.9643645, 39.1139626 ], [ 0.9006065, 39.0069996 ] ] ], [ [ [ -17.5765295, 28.1178186 ], [ -17.5387275, 28.2671726 ], [ -17.4856595, 28.3394246 ], [ -17.3438155, 28.4097576 ], [ -17.1467745, 28.3955246 ], [ -17.0250785, 28.5375046 ], [ -16.5243475, 28.6993366 ], [ -16.3987195, 28.7682436 ], [ -16.1321385, 28.7826556 ], [ -15.9415925, 28.6965756 ], [ -15.8927965, 28.5365616 ], [ -15.9207855, 28.4341596 ], [ -16.1770865, 28.1788036 ], [ -16.2537265, 28.0086836 ], [ -16.4015855, 27.8639176 ], [ -16.6793365, 27.7911236 ], [ -16.8043645, 27.8174026 ], [ -16.9356175, 27.9477786 ], [ -17.0740065, 27.8459366 ], [ -17.2651515, 27.8132496 ], [ -17.3790405, 27.8426416 ], [ -17.5053745, 27.9363256 ], [ -17.5765295, 28.1178186 ] ] ], [ [ [ -14.7246715, 28.1232586 ], [ -14.6397175, 28.2623576 ], [ -14.3889985, 28.4546776 ], [ -14.2258305, 28.7946536 ], [ -14.0258265, 29.1163556 ], [ -13.7405655, 29.7803726 ], [ -13.6654765, 29.8691076 ], [ -13.5388545, 29.9113066 ], [ -13.4066905, 29.8849646 ], [ -13.2908105, 29.7307426 ], [ -13.2615025, 29.4970496 ], [ -13.1494165, 29.3992266 ], [ -13.1017705, 29.2887196 ], [ -13.1215025, 29.1920546 ], [ -13.2519235, 28.9356046 ], [ -13.4383915, 28.7887076 ], [ -13.5971715, 28.5284096 ], [ -13.6379725, 28.3237096 ], [ -13.7026975, 28.1699556 ], [ -13.8103005, 28.0597146 ], [ -14.2214695, 27.8641066 ], [ -14.3123405, 27.8404426 ], [ -14.5328685, 27.8599176 ], [ -14.6656735, 27.9161126 ], [ -14.7219405, 27.9938686 ], [ -14.7246715, 28.1232586 ] ] ], [ [ [ 2.0514475, 39.6325726 ], [ 2.0529845, 39.5075846 ], [ 2.1260315, 39.4186866 ], [ 2.7411995, 38.9771466 ], [ 2.8934215, 38.9236776 ], [ 3.0191615, 38.9280356 ], [ 3.1543505, 38.9905846 ], [ 3.4244635, 39.2251156 ], [ 3.6994455, 39.5831626 ], [ 3.7410325, 39.7280846 ], [ 4.1977765, 39.6065206 ], [ 4.3691355, 39.6039476 ], [ 4.4733795, 39.6487576 ], [ 4.5470715, 39.7366956 ], [ 4.5891355, 39.9047216 ], [ 4.5175395, 40.0659706 ], [ 4.4426675, 40.1487896 ], [ 4.1718405, 40.2819046 ], [ 4.0208655, 40.2908176 ], [ 3.7701545, 40.2503686 ], [ 3.5927715, 40.1488816 ], [ 3.5293405, 39.9941886 ], [ 3.3072125, 40.1515446 ], [ 3.1524205, 40.1620836 ], [ 2.8577965, 40.1092106 ], [ 2.6248815, 40.0204586 ], [ 2.4169285, 39.8851946 ], [ 2.1146475, 39.7194456 ], [ 2.0514475, 39.6325726 ] ] ], [ [ [ -9.1567315, 41.8726126 ], [ -8.8709665, 41.8639288 ], [ -8.636781, 42.0474867 ], [ -8.5264202, 42.0770492 ], [ -8.3318908, 42.0838346 ], [ -8.1963808, 42.152724 ], [ -8.1820468, 42.0650225 ], [ -8.0860348, 42.0164922 ], [ -8.2168993, 41.9131548 ], [ -8.1650131, 41.8181132 ], [ -7.7041425, 41.9073398 ], [ -7.584063, 41.8755446 ], [ -7.6139012, 41.8296949 ], [ -7.4524993, 41.8650817 ], [ -7.4280601, 41.807608 ], [ -7.1967378, 41.8799794 ], [ -7.1797734, 41.979253 ], [ -7.0769558, 41.9519373 ], [ -6.599459, 41.9483028 ], [ -6.5176401, 41.8750882 ], [ -6.5614173, 41.7417712 ], [ -6.5125549, 41.6612237 ], [ -6.3546666, 41.6764053 ], [ -6.1891593, 41.5748318 ], [ -6.39051, 41.3840565 ], [ -6.4493039, 41.2988506 ], [ -6.5508031, 41.2465396 ], [ -6.6483775, 41.2475503 ], [ -6.7678712, 41.1348371 ], [ -6.808931, 41.0364965 ], [ -6.9313566, 41.0294111 ], [ -6.8099551, 40.882911 ], [ -6.8286269, 40.7385518 ], [ -6.7940144, 40.6612974 ], [ -6.8453574, 40.565954 ], [ -6.7952681, 40.5113686 ], [ -6.8496927, 40.4515196 ], [ -6.781215, 40.3638032 ], [ -6.8679897, 40.2643422 ], [ -7.0126908, 40.2254578 ], [ -7.0130093, 40.1267637 ], [ -6.9407871, 40.1117516 ], [ -6.8736232, 40.007774 ], [ -6.9035912, 39.8707055 ], [ -6.9872041, 39.8100272 ], [ -7.0155162, 39.6704277 ], [ -7.2515217, 39.6668106 ], [ -7.3311606, 39.6409943 ], [ -7.5337607, 39.6671656 ], [ -7.4993118, 39.5896451 ], [ -7.294261, 39.4568276 ], [ -7.310341, 39.340961 ], [ -7.2314717, 39.2782585 ], [ -7.2414598, 39.2082552 ], [ -7.1322229, 39.1645358 ], [ -7.1440249, 39.1086327 ], [ -7.0281908, 39.1156533 ], [ -6.9511303, 39.0235981 ], [ -7.052181, 38.9069534 ], [ -7.0330217, 38.878825 ], [ -7.2600338, 38.7229425 ], [ -7.2436757, 38.6237684 ], [ -7.3175142, 38.4403526 ], [ -7.1508747, 38.2760862 ], [ -7.0840604, 38.1694296 ], [ -6.9338216, 38.2018622 ], [ -7.002008, 38.0223914 ], [ -7.0984626, 38.0437812 ], [ -7.2618186, 37.9774654 ], [ -7.3212559, 37.8186861 ], [ -7.4189773, 37.7434848 ], [ -7.5226651, 37.5530652 ], [ -7.4666661, 37.4910173 ], [ -7.397015, 37.1576295 ], [ -7.3862731, 36.9747253 ], [ -7.0064355, 36.9684056 ], [ -6.9116255, 36.9373866 ], [ -6.4186595, 36.2573626 ], [ -6.2325625, 36.0600626 ], [ -6.0566881, 35.9594807 ], [ -5.885446, 35.9648815 ], [ -5.6665155, 35.9356749 ], [ -5.3958327, 36.0021392 ], [ -5.3713557, 35.8816827 ], [ -5.2265517, 35.8342017 ], [ -5.0213249, 35.825763 ], [ -5.0269455, 35.9361996 ], [ -5.1119098, 36.0471993 ], [ -5.0748555, 36.1360106 ], [ -4.8968085, 36.2660456 ], [ -4.6806435, 36.2867976 ], [ -4.5242525, 36.3271896 ], [ -4.0424995, 36.5238426 ], [ -3.4371505, 36.4890256 ], [ -3.1917495, 36.5371746 ], [ -2.8162765, 36.4816706 ], [ -2.6779355, 36.4812506 ], [ -2.1607055, 36.5176006 ], [ -1.9970775, 36.5582066 ], [ -1.8792245, 36.6363546 ], [ -1.6777475, 36.8499006 ], [ -1.5825165, 37.0782496 ], [ -1.3545575, 37.2466696 ], [ -1.0456045, 37.3372376 ], [ -0.8452325, 37.3573016 ], [ -0.6046585, 37.4224276 ], [ -0.4662125, 37.5138226 ], [ -0.3924395, 37.6548136 ], [ -0.3891685, 37.9212506 ], [ -0.2717205, 38.0267646 ], [ -0.1776475, 38.2275876 ], [ 0.0585575, 38.3574826 ], [ 0.4033265, 38.5751026 ], [ 0.4936665, 38.7034816 ], [ 0.4731755, 38.8354866 ], [ 0.0471105, 39.2542186 ], [ 0.0543885, 39.5799526 ], [ 0.6138205, 40.2274076 ], [ 1.0749725, 40.5755456 ], [ 1.3776945, 40.9223876 ], [ 1.5671035, 40.9759736 ], [ 1.8097845, 41.0108076 ], [ 2.2198945, 41.1021156 ], [ 2.7165185, 41.4086716 ], [ 3.0925485, 41.5493766 ], [ 3.3757995, 41.7274776 ], [ 3.4992535, 41.9083896 ], [ 3.5997245, 42.2773456 ], [ 3.5583333, 42.4353333 ], [ 3.448, 42.4353333 ], [ 3.085199, 42.4258439 ], [ 3.041023, 42.473766 ], [ 2.8390674, 42.4594089 ], [ 2.6541745, 42.3883661 ], [ 2.6617079, 42.3405024 ], [ 2.4812199, 42.3407709 ], [ 2.2569345, 42.4386996 ], [ 2.0120481, 42.3530147 ], [ 1.9327295, 42.4546433 ], [ 1.725891, 42.5026989 ], [ 1.7038417, 42.4895387 ], [ 1.6632468, 42.4926328 ], [ 1.6565443, 42.4682319 ], [ 1.63168, 42.4627495 ], [ 1.5968831, 42.4673057 ], [ 1.5811997, 42.450195 ], [ 1.557113, 42.4535005 ], [ 1.5526311, 42.4334571 ], [ 1.5157512, 42.4288238 ], [ 1.4566205, 42.435654 ], [ 1.4443332, 42.4411125 ], [ 1.4410304, 42.4754801 ], [ 1.4077997, 42.486294 ], [ 1.4436321, 42.4953225 ], [ 1.4683999, 42.509996 ], [ 1.4525271, 42.5387141 ], [ 1.4418183, 42.5434638 ], [ 1.4135781, 42.5353776 ], [ 1.4252275, 42.5579616 ], [ 1.4434009, 42.5719235 ], [ 1.4266051, 42.5833438 ], [ 1.4419909, 42.6037228 ], [ 1.3573622, 42.7197377 ], [ 1.1659432, 42.7088943 ], [ 1.0734228, 42.782602 ], [ 0.9262024, 42.7893051 ], [ 0.7086465, 42.8615226 ], [ 0.6448231, 42.7829817 ], [ 0.6689096, 42.689169 ], [ 0.4362692, 42.6897266 ], [ 0.3604154, 42.723972 ], [ 0.295691, 42.6741776 ], [ 0.1842742, 42.7355374 ], [ 0.0017359, 42.6858061 ], [ -0.0631681, 42.6961343 ], [ -0.1608291, 42.7984472 ], [ -0.2825956, 42.8377375 ], [ -0.5676173, 42.7807594 ], [ -0.7313171, 42.8960825 ], [ -0.7516765, 42.9671622 ], [ -0.945661, 42.953733 ], [ -1.3460563, 43.0907342 ], [ -1.3538887, 43.0282948 ], [ -1.471006, 43.0789705 ], [ -1.4146272, 43.1279519 ], [ -1.3789242, 43.2500788 ], [ -1.506012, 43.2934935 ], [ -1.6087888, 43.2518507 ], [ -1.6225838, 43.3011049 ], [ -1.730053, 43.2958424 ], [ -1.7901473, 43.3532864 ], [ -1.7717557, 43.4880696 ], [ -1.8034696, 43.5941884 ], [ -2.1924493, 43.5240622 ], [ -2.659891, 43.6476667 ], [ -2.9429664, 43.6439904 ], [ -3.369375, 43.6645078 ], [ -3.545629, 43.7136123 ], [ -3.8454888, 43.6948088 ], [ -4.3566576, 43.6109671 ], [ -4.8719991, 43.6610126 ], [ -5.3356684, 43.7489642 ], [ -5.7524906, 43.8519748 ], [ -5.9338004, 43.8603594 ], [ -6.2883493, 43.7962607 ], [ -6.8947848, 43.777906 ], [ -7.5899529, 43.9796913 ], [ -7.8927503, 43.9809952 ], [ -8.2138934, 43.875401 ], [ -8.464305, 43.7391922 ], [ -8.9791761, 43.5399566 ], [ -9.4167484, 43.3008173 ], [ -9.5375541, 43.1565387 ], [ -9.5754539, 43.0458933 ], [ -9.5378549, 42.8053107 ], [ -9.3441478, 42.4982675 ], [ -9.1834876, 42.1651812 ], [ -9.1437752, 41.9787338 ], [ -9.1567315, 41.8726126 ] ], [ [ -5.27739547113412, 36.148697727616209 ], [ -5.27739547113412, 36.114801975430808 ], [ -5.2902863, 36.0855961 ], [ -5.325397719274596, 36.061380943795498 ], [ -5.3637517, 36.0607944 ], [ -5.388760686820026, 36.101948779040107 ], [ -5.4006553, 36.1483668 ], [ -5.384371909847182, 36.154234857626186 ], [ -5.3388535, 36.1528477 ], [ -5.27739547113412, 36.148697727616209 ] ] ] ] } }
]
}
