{
"type": "FeatureCollection",
"name": "IE",
"crs": { "type": "name", "properties": { "name": "urn:ogc:def:crs:OGC:1.3:CRS84" } },
"features": [
{ "type": "Feature", "properties": { "ISO3166-1": "IE", "ISO3166-1:alpha2": "IE", "ISO3166-1:alpha3": "IRL", "ISO3166-1:numeric": "372", "admin_level": "2", "alt_name": "Republic of Ireland", "alt_name:ca": "República d’Irlanda", "alt_name:vi": "Ireland;Ái Nhĩ Lan", "boundary": "administrative", "capital_city": "Dublin", "country_code_fips": "EI", "currency": "EUR", "default_language": "en", "driving_side": "left", "flag": "File:Flag_of_Ireland.svg", "geonames:id": "2963597", "int_name": "Ireland", "is_in:ocean": "Atlantic", "name": "Éire / Ireland", "name:ab": "Ирландиа", "name:ace": "Irlandia", "name:ady": "Ирландие", "name:af": "Ierland", "name:ak": "Aereland", "name:als": "Irland", "name:am": "አየርላንድ", "name:an": "Irlanda", "name:ang": "Īrland Cynewīse", "name:ar": "أيرلندا", "name:arc": "ܩܘܛܢܝܘܬܐ ܕܐܝܪܠܢܕ", "name:ary": "إرلاندا", "name:arz": "جمهورية ايرلاندا", "name:ast": "República d'Irlanda", "name:av": "Ирландия", "name:avk": "Eirea", "name:awa": "आयरलैंड गणराज्य", "name:ay": "Irlandiya", "name:az": "İrlandiya", "name:azb": "ایرلند", "name:ba": "Ирландия", "name:ban": "Irlandia", "name:bar": "Irland", "name:bat-smg": "Airėjė", "name:bcl": "Irlandya", "name:be": "Ірландыя", "name:be-tarask": "Ірляндыя", "name:bg": "Ирландия", "name:bh": "आयरलैंड रिपब्लिक", "name:bi": "Ireland", "name:bm": "Irilandi", "name:bn": "আয়ারল্যান্ড", "name:bo": "ཨ་ཡར་ལནཌ།", "name:bpy": "আয়ারল্যান্ড", "name:br": "Iwerzhon", "name:bs": "Irska", "name:bug": "Irlandia", "name:bxr": "Ирланд", "name:ca": "Irlanda", "name:cdo": "Ái-ī-làng", "name:ce": "Ирланди", "name:ceb": "Irlanda", "name:ch": "Irlanda", "name:chr": "ᎠᏲᎳᏂ", "name:chy": "Ireland", "name:ckb": "ئیرلەند", "name:co": "Irlanda", "name:crh": "İrlandiya", "name:cs": "Irsko", "name:csb": "Irlandëjô", "name:cu": "Єирь", "name:cv": "Ирланди Республики", "name:cy": "Iwerddon", "name:da": "Irland", "name:de": "Irland", "name:diq": "Cumhuriyetê İrlanda", "name:dsb": "Irska", "name:dty": "गणतन्त्र आयरल्यान्ड", "name:dv": "އަޔަލޭންޑުގެ ޖުމްހޫރިއްޔާ", "name:dz": "ཨཱ་ཡ་ལེནཌ", "name:ee": "Ireland nutome", "name:el": "Ιρλανδία", "name:eml": "Irlànda", "name:en": "Ireland", "name:eo": "Irlando", "name:es": "Irlanda", "name:et": "Iirimaa", "name:eu": "Irlanda", "name:ext": "Irlanda", "name:fa": "ایرلند", "name:ff": "Irlannda", "name:fi": "Irlanti", "name:fo": "Írland", "name:fr": "Irlande", "name:frp": "Irlande", "name:frr": "Irlönj", "name:fur": "Irlande", "name:fy": "Ierlân", "name:ga": "Éire", "name:gag": "İrlandiya", "name:gan": "愛爾蘭", "name:gcr": "Irlann", "name:gd": "Èirinn", "name:gl": "Irlanda", "name:gn": "Ilandia", "name:gom": "आयर्लंड", "name:got": "𐌴𐌹𐍂𐌰𐌻𐌰𐌽𐌳", "name:gu": "આયર્લેંડ", "name:gv": "Nerin", "name:ha": "Ayalan", "name:hak": "Ireland", "name:haw": "‘Ilelani;Irelani", "name:he": "אירלנד", "name:hi": "आयरलैंड", "name:hif": "Republic of Ireland", "name:hr": "Irska", "name:hsb": "Irska", "name:ht": "Ilann", "name:hu": "Írország", "name:hy": "Իռլանդիա", "name:hyw": "Իրլանտա", "name:ia": "Irlanda", "name:id": "Irlandia", "name:ie": "Irland", "name:ig": "Ireland", "name:ilo": "Republika iti Irlánda", "name:io": "Irlando", "name:is": "Írland", "name:it": "Irlanda", "name:ja": "アイルランド", "name:jam": "Ripoblik a Airilan", "name:jbo": "airland", "name:jv": "Republik Irlandia", "name:ka": "ირლანდია", "name:kaa": "İrlandiya", "name:kab": "Lirlund", "name:kbd": "Ирлэнд", "name:ki": "Ayalandi", "name:kk": "Ирландия", "name:kl": "Irlandi", "name:km": "អៀរឡង់", "name:kn": "ಐರ್ಲೆಂಡ್", "name:ko": "아일랜드", "name:koi": "Ирму", "name:krc": "Ирландия", "name:ks": "اَیَرلینٛڑ", "name:ksh": "Irrland", "name:ku": "Îrland", "name:kv": "Ирландия", "name:kw": "Repoblek Iwerdhon", "name:ky": "Ирландия", "name:la": "Hibernia", "name:lad": "Irlanda", "name:lb": "Irland", "name:lez": "Ирландия", "name:lg": "Ayalandi", "name:li": "Ierland", "name:lij": "Éire", "name:lld": "Irlanda", "name:lmo": "Irlanda", "name:ln": "Irelandɛ", "name:lo": "ໄອແລນ", "name:lt": "Airija", "name:ltg": "Eireja", "name:lv": "Īrija", "name:lzh": "愛爾蘭共和國", "name:mad": "Republik Irlandia", "name:mdf": "Ирландия мастор", "name:mg": "Irlandy", "name:mhr": "Ирландий", "name:mi": "Airangi", "name:mk": "Ирска", "name:ml": "അയർലാൻഡ്", "name:mn": "Ирланд", "name:mr": "आयर्लंड", "name:mrj": "Ирланди", "name:ms": "Ireland", "name:mt": "Irlanda", "name:mwl": "Irlanda", "name:my": "အိုင်ယာလန်", "name:myv": "Ирландия Мастор", "name:mzn": "ایرلند جمهوری", "name:na": "Ripubrikit Airerand", "name:nah": "Irtlālpan", "name:nan": "Ài-ní-lân", "name:nds": "Irland", "name:nds-nl": "Ierlaand", "name:ne": "आइरल्याण्ड", "name:new": "गणतन्त्र आयरल्यान्द", "name:nl": "Ierland", "name:nn": "Irland", "name:no": "Irland", "name:nov": "Republike de Irlande", "name:nrm": "Républyique d'Irlande", "name:nso": "Ireland", "name:nv": "Bitsiighaʼ Łichííʼí Bikéyah", "name:oc": "Republica d'Irlanda", "name:om": "Aayerlaandi", "name:or": "ଆୟରଲ୍ୟାଣ୍ଡ", "name:os": "Ирланди", "name:pa": "ਆਇਰਲੈਂਡ ਗਣਰਾਜ", "name:pag": "Irlanda", "name:pam": "Irlanda", "name:pap": "Irlandia", "name:pcd": "Irlinde", "name:pdc": "Irland", "name:pih": "Repablik o' Airiland", "name:pl": "Irlandia", "name:pms": "Irlanda", "name:pnb": "لوکراج آئرلینڈ", "name:pnt": "Ιρλανδία", "name:ps": "د آيرلېنډ جمهوريت", "name:pt": "Irlanda", "name:qu": "Ilanda", "name:rm": "Irlanda", "name:rmy": "Republika Irland", "name:rn": "Irilandi", "name:ro": "Irlanda", "name:roa-rup": "Irlanda", "name:roa-tara": "Irlanne", "name:ru": "Ирландия", "name:rue": "Ірьско", "name:rw": "Irilande", "name:sa": "ऐर्लेण्ड् गणराज्यम्", "name:sah": "Ирландия Республиката", "name:sat": "ᱟᱭᱟᱨᱞᱮᱱᱰ ᱨᱮᱱᱟᱜ ᱟᱹᱯᱱᱟᱹᱛ", "name:sc": "Irlanda", "name:scn": "Irlanda", "name:sco": "Republic o Ireland", "name:sd": "جمھوريا آئرلينڊ", "name:se": "Irlánda", "name:sg": "Irlânde", "name:sh": "Irska", "name:shn": "မိူင်းဢၢႆႇယႃႇလႅၼ်ႇ", "name:si": "අයර්ලන්තය", "name:sk": "Írsko", "name:sl": "Irska", "name:sm": "Ripapelika o Aialani", "name:smn": "Irland", "name:sms": "Irlantt", "name:sn": "Ireland", "name:so": "Ayrlaand", "name:sq": "Irlandë", "name:sr": "Ирска", "name:srn": "Irikondre", "name:ss": "IYalendi", "name:stq": "Irlound", "name:sv": "Irland", "name:sw": "Ayalandi", "name:szl": "Irlandyjŏ", "name:ta": "அயர்லாந்து", "name:te": "ఐర్ లాండ్", "name:tet": "Irlanda", "name:tg": "Ҷумҳурии Ирландия", "name:th": "สาธารณรัฐไอร์แลนด์", "name:ti": "አየርላንድ", "name:tk": "Irlandiýa", "name:tl": "Irlanda", "name:to": "ʻAealani", "name:tok": "ma Alan", "name:tpi": "Ripablik bilong Aialan", "name:tr": "İrlanda", "name:ts": "Ireland", "name:tt": "Ирландия", "name:tzl": "Oira", "name:udm": "Ирландия", "name:uk": "Ірландія", "name:ur": "آئرلینڈ", "name:uz": "Irlandiya", "name:ve": "Ireland", "name:vec": "Irlanda", "name:vep": "Irlandii", "name:vi": "Ai-len", "name:vls": "Republiek Ierland", "name:vo": "Lireyän", "name:vro": "Iirimaa", "name:wa": "Irlande", "name:war": "Republika han Irlanda", "name:wo": "Irlaand", "name:wuu": "爱尔兰", "name:xal": "Гәәлгүдин Орн", "name:xmf": "ირლანდია", "name:yi": "אירלאנד", "name:yo": "Orílẹ́ède Ailandi", "name:yue": "愛爾蘭共和國", "name:za": "Aiwjlanz Gunghozgoz", "name:zea": "Ierland", "name:zh": "爱尔兰 / 愛爾蘭", "name:zh-Hans": "爱尔兰", "name:zh-Hant": "愛爾蘭", "name:zh-Latn-pinyin": "Àiěrlán", "name:zu": "i-Ireland", "note": "official name according to the Irish Constitution is \"Éire\" (in Irish) or \"Ireland\" (in English): \"Republic of Ireland\" is NOT an official name, but termed the \"description\" of the state", "official_name": "Éire", "official_name:cs": "Irská republika", "official_name:eo": "Respubliko de Irlando", "official_name:fi": "Irlannin tasavalta", "official_name:ga": "Éire", "official_name:io": "Republiko di Irlando", "official_name:la": "Hibernia", "official_name:mi": "Whenua Airangi", "official_name:pt": "República da Irlanda", "population": "5123536", "population:date": "2022", "ref:nuts:1": "IE0", "source:population": "https://www.cso.ie/en/csolatestnews/pressreleases/2022pressreleases/pressstatementcensusofpopulation2022-preliminaryresults/", "timezone": "Europe/Dublin", "type": "boundary", "wikidata": "Q27", "wikipedia": "en:Republic of Ireland" }, "geometry": { "type": "MultiPolygon", "coordinates": [ [ [ [ -7.2890998, 55.0473619 ], [ -7.355367, 55.0459401 ], [ -7.4453548, 54.9367224 ], [ -7.4418836, 54.8756114 ], [ -7.7462288, 54.7044316 ], [ -7.8367146, 54.7363911 ], [ -7.9180428, 54.7028206 ], [ -7.8511371, 54.630696 ], [ -7.6942625, 54.6135824 ], [ -7.8507265, 54.5331764 ], [ -8.0060085, 54.5459409 ], [ -8.0429256, 54.4891179 ], [ -8.1775099, 54.4647612 ], [ -8.0573261, 54.3657226 ], [ -7.8882844, 54.3005044 ], [ -7.8621257, 54.2186867 ], [ -7.6854337, 54.2077607 ], [ -7.610433, 54.1437826 ], [ -7.4787784, 54.1223927 ], [ -7.3395628, 54.1467174 ], [ -7.1434608, 54.2564607 ], [ -7.2121862, 54.2996241 ], [ -7.053708, 54.4121821 ], [ -6.8759423, 54.3464115 ], [ -6.7942408, 54.2087536 ], [ -6.6646359, 54.1929754 ], [ -6.6688277, 54.0735294 ], [ -6.6238101, 54.0364597 ], [ -6.4777724, 54.0771122 ], [ -6.367328, 54.0702667 ], [ -6.2805448, 54.1108748 ], [ -5.826004, 53.8701676 ], [ -5.8776766, 53.784 ], [ -5.7425149, 53.726 ], [ -5.6786127, 53.655 ], [ -5.6584698, 53.487 ], [ -5.7490192, 53.231 ], [ -5.6657807, 52.973 ], [ -5.6861912, 52.895 ], [ -5.8747858, 52.614 ], [ -5.8919223, 52.48 ], [ -6.0082064, 52.363 ], [ -5.887033, 52.246 ], [ -5.8998283, 52.134 ], [ -6.0511686, 52.027 ], [ -6.3805207, 51.973 ], [ -6.6276292, 51.909 ], [ -6.7987209, 51.939 ], [ -6.8934706, 51.924 ], [ -7.2739585, 51.932 ], [ -7.3947583, 51.83 ], [ -7.868077, 51.638 ], [ -8.0797746, 51.593 ], [ -8.2343742, 51.527 ], [ -8.3857488, 51.426 ], [ -8.6217389, 51.378 ], [ -8.9894585, 51.331 ], [ -9.134742, 51.275 ], [ -9.2938401, 51.271 ], [ -9.5089852, 51.222 ], [ -9.6909101, 51.253 ], [ -9.91469, 51.259 ], [ -10.0369111, 51.303 ], [ -10.1212231, 51.382 ], [ -10.2510413, 51.37 ], [ -10.4109188, 51.398 ], [ -10.5866565, 51.5 ], [ -10.6217007, 51.574 ], [ -10.7255491, 51.603 ], [ -10.8377261, 51.686 ], [ -10.8424561, 51.848 ], [ -11.0001835, 51.968 ], [ -10.9869643, 52.118 ], [ -10.7923598, 52.286 ], [ -10.5407807, 52.402 ], [ -10.249648, 52.498 ], [ -10.2654761, 52.572 ], [ -10.2031024, 52.678 ], [ -9.9349368, 52.811 ], [ -9.8247216, 52.91 ], [ -10.0740977, 52.995 ], [ -10.2900368, 53.15 ], [ -10.3314496, 53.207 ], [ -10.4779721, 53.261 ], [ -10.5626245, 53.352 ], [ -10.5639221, 53.448 ], [ -10.6214729, 53.541 ], [ -10.6081762, 53.691 ], [ -10.5034823, 53.774 ], [ -10.6557959, 54.028 ], [ -10.6430631, 54.134 ], [ -10.516466, 54.232 ], [ -10.3567838, 54.411 ], [ -10.2492987, 54.462 ], [ -9.8223669, 54.566 ], [ -9.5744641, 54.526 ], [ -9.281848, 54.525 ], [ -9.0256235, 54.497 ], [ -9.1223056, 54.553 ], [ -9.179515, 54.647 ], [ -9.0972465, 54.807 ], [ -8.9070825, 54.921 ], [ -8.8999314, 55.064 ], [ -8.8262475, 55.145 ], [ -8.6022705, 55.262 ], [ -8.545392, 55.383 ], [ -8.3093262, 55.472 ], [ -8.1306798, 55.465 ], [ -7.9717635, 55.426 ], [ -7.7057863, 55.477 ], [ -7.6147033, 55.536 ], [ -7.3373692, 55.628 ], [ -7.1738609, 55.633 ], [ -7.0343527, 55.604 ], [ -6.8940905, 55.51 ], [ -6.8690224, 55.45 ], [ -6.7442693, 55.4149759 ], [ -6.7194258, 55.2801706 ], [ -6.8217241, 55.2164676 ], [ -6.9419925, 55.2046076 ], [ -7.2890998, 55.0473619 ] ] ] ] } }
]
}
